KUIPER-00089            
1 64834U 25151U   25220.04943901  .00014347  00000+0  42002-3 0  9999
2 64834  51.8778 177.8109 0005314 235.6703 124.3780 15.35470796  3493
KUIPER-00090            
1 64835U 25151V   25220.05264807  .00013228  00000+0  39120-3 0  9996
2 64835  51.8776 177.8298 0005377 240.7935 119.2514 15.35225342  3486
KUIPER-00091            
1 64836U 25151W   25220.49824334  .00023321  00000+0  66665-3 0  9991
2 64836  51.8773 175.5652 0005326 213.1109 146.9544 15.35864069  3568
KUIPER-00092            
1 64837U 25151X   25220.04562907  .00022399  00000+0  64243-3 0  9992
2 64837  51.8769 177.7793 0005238 222.5368 137.5212 15.35785284  4703
KUIPER-00093            
1 64838U 25151Y   25220.04891131  .00014025  00000+0  40989-3 0  9995
2 64838  51.8781 177.8084 0005031 227.5517 132.5044 15.35545404  3495
KUIPER-00094            
1 64839U 25151Z   25220.37048154  .00022652  00000+0  64989-3 0  9992
2 64839  51.8771 176.2078 0004864 225.2583 134.8008 15.35769606  3770
